{
  "norad_id": 62134,
  "name": "STARLINK-32546",
  "history": [
    {
      "epoch": "2026-03-28T02:35:09.908448Z",
      "apogee_km": 483.7769669642521,
      "perigee_km": 482.3307651535033,
      "latitude_deg": 2.1292378939179916e-05,
      "longitude_deg": 164.56749512286873,
      "height_km": 482.95492732852523,
      "semi_major_axis_km": 6861.190866058877,
      "eccentricity": 0.00010539,
      "inclination_deg": 43.0023,
      "raan_deg": 28.8917,
      "arg_perigee_deg": 260.0912,
      "mean_anomaly_deg": 99.9821,
      "mean_motion_rev_day": 15.27578407
    },
    {
      "epoch": "2026-03-29T03:41:39.552864Z",
      "apogee_km": 483.8384724491225,
      "perigee_km": 482.0202898581165,
      "latitude_deg": 2.0373793354559283e-05,
      "longitude_deg": 141.0042169223191,
      "height_km": 482.80477674688615,
      "semi_major_axis_km": 6861.066381153619,
      "eccentricity": 0.0001325,
      "inclination_deg": 43.0006,
      "raan_deg": 22.9831,
      "arg_perigee_deg": 263.7661,
      "mean_anomaly_deg": 96.304,
      "mean_motion_rev_day": 15.27619981
    },
    {
      "epoch": "2026-03-30T04:48:09.803808Z",
      "apogee_km": 483.962547247007,
      "perigee_km": 482.0345681552926,
      "latitude_deg": 2.0695524049791515e-05,
      "longitude_deg": 117.44080685300798,
      "height_km": 482.51258942403507,
      "semi_major_axis_km": 6861.135557701149,
      "eccentricity": 0.0001405,
      "inclination_deg": 43.0027,
      "raan_deg": 17.0769,
      "arg_perigee_deg": 285.8302,
      "mean_anomaly_deg": 74.2395,
      "mean_motion_rev_day": 15.27596878
    },
    {
      "epoch": "2026-03-30T04:48:09.804672Z",
      "apogee_km": 483.9628216924293,
      "perigee_km": 482.0342937098703,
      "latitude_deg": 2.374679912769996e-05,
      "longitude_deg": 117.4408064968173,
      "height_km": 482.51251456701016,
      "semi_major_axis_km": 6861.135557701149,
      "eccentricity": 0.00014054,
      "inclination_deg": 43.0027,
      "raan_deg": 17.0769,
      "arg_perigee_deg": 285.8302,
      "mean_anomaly_deg": 74.2395,
      "mean_motion_rev_day": 15.27596878
    },
    {
      "epoch": "2026-03-30T18:55:35.005440Z",
      "apogee_km": 483.8974605385829,
      "perigee_km": 482.1297536961647,
      "latitude_deg": -5.294462384180001e-05,
      "longitude_deg": -98.32011619368213,
      "height_km": 482.8796000570668,
      "semi_major_axis_km": 6861.1506071173735,
      "eccentricity": 0.00012882,
      "inclination_deg": 43.001,
      "raan_deg": 13.7511,
      "arg_perigee_deg": 264.2021,
      "mean_anomaly_deg": 95.8683,
      "mean_motion_rev_day": 15.27591852
    },
    {
      "epoch": "2026-03-31T18:27:56.642112Z",
      "apogee_km": 483.2416990713182,
      "perigee_km": 482.8094458292535,
      "latitude_deg": -3.4775186652409076e-05,
      "longitude_deg": -97.91267478124213,
      "height_km": 482.77860474458487,
      "semi_major_axis_km": 6861.162572450286,
      "eccentricity": 3.15e-05,
      "inclination_deg": 43.0004,
      "raan_deg": 8.2154,
      "arg_perigee_deg": 84.1307,
      "mean_anomaly_deg": 275.958,
      "mean_motion_rev_day": 15.27587856
    },
    {
      "epoch": "2026-04-01T03:52:52.809312Z",
      "apogee_km": 484.11240034085495,
      "perigee_km": 481.91065777787935,
      "latitude_deg": 5.926802990801039e-05,
      "longitude_deg": 118.24971098882402,
      "height_km": 482.72237413439905,
      "semi_major_axis_km": 6861.148529059366,
      "eccentricity": 0.00016045,
      "inclination_deg": 43.0047,
      "raan_deg": 5.9984,
      "arg_perigee_deg": 273.4656,
      "mean_anomaly_deg": 86.6013,
      "mean_motion_rev_day": 15.27592546
    },
    {
      "epoch": "2026-04-02T17:32:37.198176Z",
      "apogee_km": 485.6893485811861,
      "perigee_km": 480.24986326401086,
      "latitude_deg": -1.8507344336372557e-05,
      "longitude_deg": -97.09496094010863,
      "height_km": 482.0788465112927,
      "semi_major_axis_km": 6861.106605922598,
      "eccentricity": 0.0003964,
      "inclination_deg": 43.0025,
      "raan_deg": 357.1355,
      "arg_perigee_deg": 284.2494,
      "mean_anomaly_deg": 75.7917,
      "mean_motion_rev_day": 15.27606547
    },
    {
      "epoch": "2026-04-02T17:32:37.199040Z",
      "apogee_km": 485.6891427479877,
      "perigee_km": 480.2500690972083,
      "latitude_deg": -2.0794326547918816e-05,
      "longitude_deg": -97.09496698868581,
      "height_km": 482.0788971685739,
      "semi_major_axis_km": 6861.106605922598,
      "eccentricity": 0.00039637,
      "inclination_deg": 43.0025,
      "raan_deg": 357.1355,
      "arg_perigee_deg": 284.2494,
      "mean_anomaly_deg": 75.7917,
      "mean_motion_rev_day": 15.27606547
    },
    {
      "epoch": "2026-04-03T17:04:58.054656Z",
      "apogee_km": 484.009092605982,
      "perigee_km": 482.0769843071521,
      "latitude_deg": 5.0473303643690753e-05,
      "longitude_deg": -96.68550683910618,
      "height_km": 482.6697880970345,
      "semi_major_axis_km": 6861.180038456567,
      "eccentricity": 0.0001408,
      "inclination_deg": 43.0046,
      "raan_deg": 351.5985,
      "arg_perigee_deg": 278.9609,
      "mean_anomaly_deg": 81.1084,
      "mean_motion_rev_day": 15.27582023
    },
    {
      "epoch": "2026-04-04T10:20:42.215424Z",
      "apogee_km": 484.3155535437554,
      "perigee_km": 481.7320520550702,
      "latitude_deg": 4.421011761238126e-05,
      "longitude_deg": -0.39115325820201463,
      "height_km": 482.4638979169322,
      "semi_major_axis_km": 6861.1608027994125,
      "eccentricity": 0.00018827,
      "inclination_deg": 43.0044,
      "raan_deg": 347.5358,
      "arg_perigee_deg": 285.1444,
      "mean_anomaly_deg": 74.92,
      "mean_motion_rev_day": 15.27588447
    },
    {
      "epoch": "2026-04-05T09:53:03.388128Z",
      "apogee_km": 484.0978596145842,
      "perigee_km": 481.99037922194293,
      "latitude_deg": -8.88343620493333e-06,
      "longitude_deg": 0.015048056213388632,
      "height_km": 482.49718175433344,
      "semi_major_axis_km": 6861.181119418263,
      "eccentricity": 0.00015358,
      "inclination_deg": 43.0034,
      "raan_deg": 341.997,
      "arg_perigee_deg": 287.9138,
      "mean_anomaly_deg": 72.1546,
      "mean_motion_rev_day": 15.27581662
    },
    {
      "epoch": "2026-04-06T01:34:36.915456Z",
      "apogee_km": 484.1959781978758,
      "perigee_km": 481.8225704786573,
      "latitude_deg": 2.6983136338667013e-05,
      "longitude_deg": 120.28641379095879,
      "height_km": 482.61346285585967,
      "semi_major_axis_km": 6861.146274338266,
      "eccentricity": 0.00017296,
      "inclination_deg": 43.0067,
      "raan_deg": 338.3025,
      "arg_perigee_deg": 278.4085,
      "mean_anomaly_deg": 81.6571,
      "mean_motion_rev_day": 15.27593299
    },
    {
      "epoch": "2026-04-07T08:57:44.429760Z",
      "apogee_km": 484.03533393114867,
      "perigee_km": 481.9581942954019,
      "latitude_deg": -9.278686928089716e-06,
      "longitude_deg": 0.8333086897039957,
      "height_km": 482.31275804655746,
      "semi_major_axis_km": 6861.133764113275,
      "eccentricity": 0.00015137,
      "inclination_deg": 43.0031,
      "raan_deg": 330.9197,
      "arg_perigee_deg": 296.3567,
      "mean_anomaly_deg": 63.7129,
      "mean_motion_rev_day": 15.27597477
    },
    {
      "epoch": "2026-04-08T00:39:18.052992Z",
      "apogee_km": 483.6254280093963,
      "perigee_km": 482.3458286392133,
      "latitude_deg": -2.16886031362479e-05,
      "longitude_deg": 121.106321550283,
      "height_km": 482.6537133513833,
      "semi_major_axis_km": 6861.122628324305,
      "eccentricity": 9.325e-05,
      "inclination_deg": 43.0027,
      "raan_deg": 327.2273,
      "arg_perigee_deg": 279.7654,
      "mean_anomaly_deg": 80.3092,
      "mean_motion_rev_day": 15.27601196
    },
    {
      "epoch": "2026-04-09T08:02:25.729728Z",
      "apogee_km": 483.9786403258795,
      "perigee_km": 482.0933272133998,
      "latitude_deg": -1.1064828475578807e-06,
      "longitude_deg": 1.6496978420158959,
      "height_km": 482.7167042866957,
      "semi_major_axis_km": 6861.172983769639,
      "eccentricity": 0.00013739,
      "inclination_deg": 43.0032,
      "raan_deg": 319.8416,
      "arg_perigee_deg": 275.8649,
      "mean_anomaly_deg": 84.2046,
      "mean_motion_rev_day": 15.27584379
    },
    {
      "epoch": "2026-04-09T23:43:59.212992Z",
      "apogee_km": 484.36264066479634,
      "perigee_km": 481.6479611020286,
      "latitude_deg": -2.132280949509498e-07,
      "longitude_deg": 121.9243097047372,
      "height_km": 482.91092430540306,
      "semi_major_axis_km": 6861.142300883412,
      "eccentricity": 0.00019783,
      "inclination_deg": 43.004,
      "raan_deg": 316.1502,
      "arg_perigee_deg": 264.5869,
      "mean_anomaly_deg": 95.4757,
      "mean_motion_rev_day": 15.27594626
    },
    {
      "epoch": "2026-04-11T14:57:54.463392Z",
      "apogee_km": 483.78253841145215,
      "perigee_km": 482.25661718854826,
      "latitude_deg": -8.805776836398383e-06,
      "longitude_deg": -117.40161441034046,
      "height_km": 483.0056378539936,
      "semi_major_axis_km": 6861.1565777999995,
      "eccentricity": 0.0001112,
      "inclination_deg": 43.0007,
      "raan_deg": 306.9157,
      "arg_perigee_deg": 254.0554,
      "mean_anomaly_deg": 106.0175,
      "mean_motion_rev_day": 15.27589858
    },
    {
      "epoch": "2026-04-12T22:21:02.058048Z",
      "apogee_km": 484.07583965590493,
      "perigee_km": 481.98867196828724,
      "latitude_deg": -2.4396762583065178e-05,
      "longitude_deg": 123.14386916262963,
      "height_km": 482.8196396329429,
      "semi_major_axis_km": 6861.169255812096,
      "eccentricity": 0.0001521,
      "inclination_deg": 43.0026,
      "raan_deg": 299.5318,
      "arg_perigee_deg": 269.4349,
      "mean_anomaly_deg": 90.6328,
      "mean_motion_rev_day": 15.27585624
    }
  ]
}